ONEWEB-0056             
1 45159U 20008AE  25096.83326316  .00000600  00000+0  16823-2 0  9995
2 45159  87.8803 123.2591 0002120  94.3418 265.7951 13.10371104251034
ONEWEB-0057             
1 45160U 20008AF  25096.76435671  .00000394  00000+0  10938-2 0  9995
2 45160  87.8804 123.2837 0002200  96.4643 263.6735 13.10369103251192
ONEWEB-0058             
1 45161U 20008AG  25096.82758372  .00000639  00000+0  17932-2 0  9992
2 45161  87.8801 123.2883 0002023  89.9488 270.1871 13.10372300251274
ONEWEB-0059             
1 45162U 20008AH  25096.82412233  .00000624  00000+0  17517-2 0  9999
2 45162  87.8806 123.2826 0001953  90.4292 269.7059 13.10373674251174
ONEWEB-0062             
1 45163U 20008AJ  25096.77351029 -.00000047  00000+0 -16953-3 0  9994
2 45163  87.8801 123.2742 0001659  93.7662 266.3655 13.10370759251038
ONEWEB-0065             
1 45164U 20008AK  25096.82910478  .00000673  00000+0  18920-2 0  9998
2 45164  87.8809 123.2822 0002160  95.9002 264.2372 13.10372247250739
ONEWEB-0066             
1 45424U 20020A   25096.95806588  .00000056  00000+0  12256-3 0  9993
2 45424  87.8792 108.0220 0002279  83.7415 276.3972 13.11414384245505
ONEWEB-0067             
1 45425U 20020B   25096.76661550  .00000016  00000+0  94596-5 0  9996
2 45425  87.8783 107.9848 0002198  89.1030 271.0349 13.11417339245539
